<?xml version="1.0" encoding="UTF-8"?>
<gpx version="1.1" creator="Manual GPX Creator" xmlns="http://www.topografix.com/GPX/1/1" xmlns:xsi="http://www.w3.org/2001/XMLSchema-instance" xsi:schemaLocation="http://www.topografix.com/GPX/1/1 http://www.topografix.com/GPX/1/1/gpx.xsd">
  <metadata>
    <name>Paris Sample Track</name>
    <desc>A sample track passing by the Eiffel Tower and Louvre Museum to test swapping.</desc>
  </metadata>
  <wpt lat="48.858844" lon="2.294351">
    <name>Eiffel Tower</name>
  </wpt>
  <wpt lat="48.860611" lon="2.337644">
    <name>Louvre Museum</name>
  </wpt>
  <trk>
    <name>Short Paris Walk</name>
    <trkseg>
      <trkpt lat="48.858844" lon="2.294351">
        <ele>35.0</ele>
        <time>2026-06-03T12:00:00Z</time>
      </trkpt>
      <trkpt lat="48.860611" lon="2.337644">
        <ele>34.0</ele>
        <time>2026-06-03T12:15:00Z</time>
      </trkpt>
    </trkseg>
  </trk>
</gpx>
